[
    {
        "OBJECT_NAME": "STARLINK-4379",
        "OBJECT_ID": "2022-084AE",
        "EPOCH": "2023-09-13T18:58:29.163648",
        "MEAN_MOTION": 15.01258156,
        "ECCENTRICITY": 0.0000577,
        "INCLINATION": 97.6564,
        "RA_OF_ASC_NODE": 316.6137,
        "ARG_OF_PERICENTER": 74.6179,
        "MEAN_ANOMALY": 285.5109,
        "EPHEMERIS_TYPE": 0,
        "CLASSIFICATION_TYPE": "U",
        "NORAD_CAT_ID": 53217,
        "ELEMENT_SET_NO": 999,
        "REV_AT_EPOCH": 6310,
        "BSTAR": -0.000072007,
        "MEAN_MOTION_DOT": -0.00000984,
        "MEAN_MOTION_DDOT": 0
    },
    {
        "OBJECT_NAME": "STARLINK-4384",
        "OBJECT_ID": "2022-084AF",
        "EPOCH": "2023-09-13T17:25:30.783936",
        "MEAN_MOTION": 15.01262045,
        "ECCENTRICITY": 0.0001826,
        "INCLINATION": 97.6565,
        "RA_OF_ASC_NODE": 316.5588,
        "ARG_OF_PERICENTER": 192.0351,
        "MEAN_ANOMALY": 168.083,
        "EPHEMERIS_TYPE": 0,
        "CLASSIFICATION_TYPE": "U",
        "NORAD_CAT_ID": 53218,
        "ELEMENT_SET_NO": 999,
        "REV_AT_EPOCH": 6361,
        "BSTAR": -0.0000041676,
        "MEAN_MOTION_DOT": -0.00000113,
        "MEAN_MOTION_DDOT": 0
    },
    {
        "OBJECT_NAME": "STARLINK-4373",
        "OBJECT_ID": "2022-084AG",
        "EPOCH": "2023-09-13T17:27:49.781664",
        "MEAN_MOTION": 15.0126303,
        "ECCENTRICITY": 0.0000855,
        "INCLINATION": 97.6552,
        "RA_OF_ASC_NODE": 316.5283,
        "ARG_OF_PERICENTER": 227.6448,
        "MEAN_ANOMALY": 132.4704,
        "EPHEMERIS_TYPE": 0,
        "CLASSIFICATION_TYPE": "U",
        "NORAD_CAT_ID": 53219,
        "ELEMENT_SET_NO": 999,
        "REV_AT_EPOCH": 6309,
        "BSTAR": -0.000010575,
        "MEAN_MOTION_DOT": -0.00000195,
        "MEAN_MOTION_DDOT": 0
    },
    {
        "OBJECT_NAME": "STARLINK-4363",
        "OBJECT_ID": "2022-084AH",
        "EPOCH": "2023-09-13T17:35:49.733664",
        "MEAN_MOTION": 15.0125944,
        "ECCENTRICITY": 0.0001406,
        "INCLINATION": 97.655,
        "RA_OF_ASC_NODE": 316.5301,
        "ARG_OF_PERICENTER": 158.372,
        "MEAN_ANOMALY": 201.7564,
        "EPHEMERIS_TYPE": 0,
        "CLASSIFICATION_TYPE": "U",
        "NORAD_CAT_ID": 53220,
        "ELEMENT_SET_NO": 999,
        "REV_AT_EPOCH": 6361,
        "BSTAR": -0.000056866,
        "MEAN_MOTION_DOT": -0.00000789,
        "MEAN_MOTION_DDOT": 0
    },
    {
        "OBJECT_NAME": "STARLINK-4377",
        "OBJECT_ID": "2022-084AJ",
        "EPOCH": "2023-09-13T17:25:10.102368",
        "MEAN_MOTION": 15.01259681,
        "ECCENTRICITY": 0.0000385,
        "INCLINATION": 97.6563,
        "RA_OF_ASC_NODE": 316.529,
        "ARG_OF_PERICENTER": 291.7308,
        "MEAN_ANOMALY": 68.3875,
        "EPHEMERIS_TYPE": 0,
        "CLASSIFICATION_TYPE": "U",
        "NORAD_CAT_ID": 53221,
        "ELEMENT_SET_NO": 999,
        "REV_AT_EPOCH": 6309,
        "BSTAR": -0.000038031,
        "MEAN_MOTION_DOT": -0.00000547,
        "MEAN_MOTION_DDOT": 0
    },
    {
        "OBJECT_NAME": "STARLINK-4381",
        "OBJECT_ID": "2022-084AK",
        "EPOCH": "2023-09-13T17:33:09.878112",
        "MEAN_MOTION": 15.0126314,
        "ECCENTRICITY": 0.0000478,
        "INCLINATION": 97.6543,
        "RA_OF_ASC_NODE": 316.5295,
        "ARG_OF_PERICENTER": 164.3665,
        "MEAN_ANOMALY": 195.7574,
        "EPHEMERIS_TYPE": 0,
        "CLASSIFICATION_TYPE": "U",
        "NORAD_CAT_ID": 53222,
        "ELEMENT_SET_NO": 999,
        "REV_AT_EPOCH": 6309,
        "BSTAR": -0.000019651,
        "MEAN_MOTION_DOT": -0.00000311,
        "MEAN_MOTION_DDOT": 0
    },
    {
        "OBJECT_NAME": "STARLINK-4354",
        "OBJECT_ID": "2022-084AL",
        "EPOCH": "2023-09-13T17:33:31.472928",
        "MEAN_MOTION": 15.01259522,
        "ECCENTRICITY": 0.0002241,
        "INCLINATION": 97.655,
        "RA_OF_ASC_NODE": 316.5124,
        "ARG_OF_PERICENTER": 158.9055,
        "MEAN_ANOMALY": 201.2262,
        "EPHEMERIS_TYPE": 0,
        "CLASSIFICATION_TYPE": "U",
        "NORAD_CAT_ID": 53223,
        "ELEMENT_SET_NO": 999,
        "REV_AT_EPOCH": 6309,
        "BSTAR": 0.000037835,
        "MEAN_MOTION_DOT": 0.00000427,
        "MEAN_MOTION_DDOT": 0
    },
    {
        "OBJECT_NAME": "STARLINK-4356",
        "OBJECT_ID": "2022-084AM",
        "EPOCH": "2023-09-13T17:30:29.965536",
        "MEAN_MOTION": 15.01262416,
        "ECCENTRICITY": 0.0000248,
        "INCLINATION": 97.6554,
        "RA_OF_ASC_NODE": 316.5287,
        "ARG_OF_PERICENTER": 159.9422,
        "MEAN_ANOMALY": 200.1812,
        "EPHEMERIS_TYPE": 0,
        "CLASSIFICATION_TYPE": "U",
        "NORAD_CAT_ID": 53224,
        "ELEMENT_SET_NO": 999,
        "REV_AT_EPOCH": 6309,
        "BSTAR": -0.000014448,
        "MEAN_MOTION_DOT": -0.00000244,
        "MEAN_MOTION_DDOT": 0
    },
    {
        "OBJECT_NAME": "STARLINK-4358",
        "OBJECT_ID": "2022-084AN",
        "EPOCH": "2023-09-14T04:29:01.517568",
        "MEAN_MOTION": 15.0126691,
        "ECCENTRICITY": 0.0000933,
        "INCLINATION": 97.6559,
        "RA_OF_ASC_NODE": 316.9926,
        "ARG_OF_PERICENTER": 62.9164,
        "MEAN_ANOMALY": 297.2155,
        "EPHEMERIS_TYPE": 0,
        "CLASSIFICATION_TYPE": "U",
        "NORAD_CAT_ID": 53225,
        "ELEMENT_SET_NO": 999,
        "REV_AT_EPOCH": 6316,
        "BSTAR": -0.000066558,
        "MEAN_MOTION_DOT": -0.00000914,
        "MEAN_MOTION_DDOT": 0
    },
    {
        "OBJECT_NAME": "STARLINK-4359",
        "OBJECT_ID": "2022-084AP",
        "EPOCH": "2023-09-14T04:26:21.738912",
        "MEAN_MOTION": 15.01262274,
        "ECCENTRICITY": 0.0001437,
        "INCLINATION": 97.6567,
        "RA_OF_ASC_NODE": 317.0053,
        "ARG_OF_PERICENTER": 87.0561,
        "MEAN_ANOMALY": 273.0828,
        "EPHEMERIS_TYPE": 0,
        "CLASSIFICATION_TYPE": "U",
        "NORAD_CAT_ID": 53226,
        "ELEMENT_SET_NO": 999,
        "REV_AT_EPOCH": 6317,
        "BSTAR": -0.000018122,
        "MEAN_MOTION_DOT": -0.00000292,
        "MEAN_MOTION_DDOT": 0
    },
    {
        "OBJECT_NAME": "STARLINK-4366",
        "OBJECT_ID": "2022-084AQ",
        "EPOCH": "2023-09-13T21:49:07.294944",
        "MEAN_MOTION": 15.01255818,
        "ECCENTRICITY": 0.0002116,
        "INCLINATION": 97.6546,
        "RA_OF_ASC_NODE": 316.7372,
        "ARG_OF_PERICENTER": 94.1821,
        "MEAN_ANOMALY": 265.9645,
        "EPHEMERIS_TYPE": 0,
        "CLASSIFICATION_TYPE": "U",
        "NORAD_CAT_ID": 53227,
        "ELEMENT_SET_NO": 999,
        "REV_AT_EPOCH": 6312,
        "BSTAR": -0.000044805,
        "MEAN_MOTION_DOT": -0.00000634,
        "MEAN_MOTION_DDOT": 0
    },
    {
        "OBJECT_NAME": "STARLINK-4365",
        "OBJECT_ID": "2022-084AR",
        "EPOCH": "2023-09-13T18:55:49.004832",
        "MEAN_MOTION": 15.01256856,
        "ECCENTRICITY": 0.0000531,
        "INCLINATION": 97.6567,
        "RA_OF_ASC_NODE": 316.5952,
        "ARG_OF_PERICENTER": 279.5999,
        "MEAN_ANOMALY": 80.5165,
        "EPHEMERIS_TYPE": 0,
        "CLASSIFICATION_TYPE": "U",
        "NORAD_CAT_ID": 53228,
        "ELEMENT_SET_NO": 999,
        "REV_AT_EPOCH": 6310,
        "BSTAR": -0.000036803,
        "MEAN_MOTION_DOT": -0.00000532,
        "MEAN_MOTION_DDOT": 0
    }
]