STARLINK-4379           
1 53217U 22084AE  23256.79061532 -.00000984  00000+0 -72007-4 0  9997
2 53217  97.6564 316.6137 0000577  74.6179 285.5109 15.01258156 63101
STARLINK-4384           
1 53218U 22084AF  23256.72605074 -.00000113  00000+0 -41676-5 0  9999
2 53218  97.6565 316.5588 0001826 192.0351 168.0830 15.01262045 63611
STARLINK-4373           
1 53219U 22084AG  23256.72765951 -.00000195  00000+0 -10575-4 0  9994
2 53219  97.6552 316.5283 0000855 227.6448 132.4704 15.01263030 63095
STARLINK-4363           
1 53220U 22084AH  23256.73321451 -.00000789  00000+0 -56866-4 0  9992
2 53220  97.6550 316.5301 0001406 158.3720 201.7564 15.01259440 63614
STARLINK-4377           
1 53221U 22084AJ  23256.72581137 -.00000547  00000+0 -38031-4 0  9997
2 53221  97.6563 316.5290 0000385 291.7308  68.3875 15.01259681 63096
STARLINK-4381           
1 53222U 22084AK  23256.73136433 -.00000311  00000+0 -19651-4 0  9990
2 53222  97.6543 316.5295 0000478 164.3665 195.7574 15.01263140 63090
STARLINK-4354           
1 53223U 22084AL  23256.73161427  .00000427  00000+0  37835-4 0  9992
2 53223  97.6550 316.5124 0002241 158.9055 201.2262 15.01259522 63098
STARLINK-4356           
1 53224U 22084AM  23256.72951349 -.00000244  00000+0 -14448-4 0  9996
2 53224  97.6554 316.5287 0000248 159.9422 200.1812 15.01262416 63092
STARLINK-4358           
1 53225U 22084AN  23257.18682312 -.00000914  00000+0 -66558-4 0  9992
2 53225  97.6559 316.9926 0000933  62.9164 297.2155 15.01266910 63167
STARLINK-4359           
1 53226U 22084AP  23257.18497383 -.00000292  00000+0 -18122-4 0  9998
2 53226  97.6567 317.0053 0001437  87.0561 273.0828 15.01262274 63178
STARLINK-4366           
1 53227U 22084AQ  23256.90911221 -.00000634  00000+0 -44805-4 0  9997
2 53227  97.6546 316.7372 0002116  94.1821 265.9645 15.01255818 63127
STARLINK-4365           
1 53228U 22084AR  23256.78876163 -.00000532  00000+0 -36803-4 0  9995
2 53228  97.6567 316.5952 0000531 279.5999  80.5165 15.01256856 63106
